NORAD_CAT_ID,OBJECT_NAME,OBJECT_TYPE,EPOCH,MEAN_MOTION,ECCENTRICITY,INCLINATION,RA_OF_ASC_NODE,ARG_OF_PERICENTER,MEAN_ANOMALY,BSTAR,MEAN_MOTION_DOT,MEAN_MOTION_DDOT,TLE_LINE0,TLE_LINE1,TLE_LINE2,SEMIMAJOR_AXIS,PERIOD,APOGEE,PERIGEE,DECAYED
53030.0,STARLINK-4160,PAYLOAD,2023-11-14 04:33:40,15.08846737,0.0001727,53.2176,284.3966,106.2644,253.8538,0.00017615,2.517e-05,0.0,0 STARLINK-4160,1 53030U 22076AW  23318.19005383  .00002517  00000-0  17615-3 0  9992,2 53030  53.2176 284.3966 0001727 106.2644 253.8538 15.08846737 75190,6917.86,95.437,540.92,538.53,0.0
53030.0,STARLINK-4160,PAYLOAD,2023-11-14 22:02:55,15.08839003,0.0001631,53.2176,281.125,102.5132,257.6043,6.6043e-05,7.63e-06,0.0,0 STARLINK-4160,1 53030U 22076AW  23318.91869792  .00000763  00000-0  66043-4 0  9995,2 53030  53.2176 281.1250 0001631 102.5132 257.6043 15.08839003 75300,6917.883,95.438,540.877,538.62,0.0
53030.0,STARLINK-4160,PAYLOAD,2023-11-15 02:49:04,15.08839795,0.0001835,53.218,280.233,113.7967,246.3218,7.1308e-05,8.47e-06,0.0,0 STARLINK-4160,1 53030U 22076AW  23319.11741730  .00000847  00000-0  71308-4 0  9992,2 53030  53.2180 280.2330 0001835 113.7967 246.3218 15.08839795 75802,6917.881,95.438,541.015,538.477,0.0
53030.0,STARLINK-4160,PAYLOAD,2023-11-15 13:56:46,15.08839297,0.0001574,53.2178,278.155,94.9394,265.1778,5.4166e-06,-2.02e-06,0.0,0 STARLINK-4160,1 53030U 22076AW  23319.58109952 -.00000202  00000-0  54166-5 0  9997,2 53030  53.2178 278.1550 0001574  94.9394 265.1778 15.08839297 75406,6917.883,95.438,540.836,538.659,0.0
53030.0,STARLINK-4160,PAYLOAD,2023-11-15 21:53:42,15.08839055,0.000145,53.2174,276.6674,91.8689,268.2469,0.00010781,1.428e-05,0.0,0 STARLINK-4160,1 53030U 22076AW  23319.91230063  .00001428  00000-0  10781-3 0  9995,2 53030  53.2174 276.6674 0001450  91.8689 268.2469 15.08839055 75456,6917.883,95.438,540.751,538.745,0.0
53030.0,STARLINK-4160,PAYLOAD,2023-11-16 07:26:01,15.08840449,0.0001616,53.2178,274.8829,95.3317,264.786,0.00033131,4.989e-05,0.0,0 STARLINK-4160,1 53030U 22076AW  23320.30974014  .00004989  00000-0  33131-3 0  9990,2 53030  53.2178 274.8829 0001616  95.3317 264.7860 15.08840449 75986,6917.879,95.438,540.862,538.626,0.0
53030.0,STARLINK-4160,PAYLOAD,2023-11-17 04:06:02,15.08836795,0.0001435,53.2172,271.0188,81.9316,278.1839,7.2824e-05,8.71e-06,0.0,0 STARLINK-4160,1 53030U 22076AW  23321.17086295  .00000871  00000-0  72824-4 0  9990,2 53030  53.2172 271.0188 0001435  81.9316 278.1839 15.08836795 76116,6917.89,95.438,540.748,538.762,0.0
53030.0,STARLINK-4160,PAYLOAD,2023-11-18 05:32:12,15.08842825,0.0001539,53.2172,266.2619,95.8629,264.2539,8.412e-05,1.051e-05,0.0,0 STARLINK-4160,1 53030U 22076AW  23322.23070200  .00001051  00000-0  84120-4 0  9990,2 53030  53.2172 266.2619 0001539  95.8629 264.2539 15.08842825 76278,6917.872,95.437,540.801,538.672,0.0
53030.0,STARLINK-4160,PAYLOAD,2023-11-18 13:29:08,15.08838129,0.0001501,53.217,264.7751,90.8315,269.285,0.00022731,3.331e-05,0.0,0 STARLINK-4160,1 53030U 22076AW  23322.56190539  .00003331  00000-0  22731-3 0  9996,2 53030  53.2170 264.7751 0001501  90.8315 269.2850 15.08838129 75858,6917.886,95.438,540.789,538.713,0.0
53030.0,STARLINK-4160,PAYLOAD,2023-11-19 03:47:37,15.08828489,0.0001598,53.2183,262.0993,88.3654,271.7521,0.00032043,4.814e-05,0.0,0 STARLINK-4160,1 53030U 22076AW  23323.15806944  .00004814  00000-0  32043-3 0  9990,2 53030  53.2183 262.0993 0001598  88.3654 271.7521 15.08828489 76419,6917.916,95.438,540.886,538.675,0.0
53030.0,STARLINK-4160,PAYLOAD,2023-11-19 05:22:59,15.08845834,0.0001548,53.2182,261.8016,85.0505,275.0664,0.00015975,2.256e-05,0.0,0 STARLINK-4160,1 53030U 22076AW  23323.22430280  .00002256  00000-0  15975-3 0  9997,2 53030  53.2182 261.8016 0001548  85.0505 275.0664 15.08845834 76424,6917.863,95.437,540.798,538.657,0.0
53030.0,STARLINK-4160,PAYLOAD,2023-11-19 13:19:55,15.0884635,0.0001605,53.2188,260.3138,83.5923,276.5252,0.000131,1.798e-05,0.0,0 STARLINK-4160,1 53030U 22076AW  23323.55550264  .00001798  00000-0  13100-3 0  9996,2 53030  53.2188 260.3138 0001605  83.5923 276.5252 15.08846350 76007,6917.861,95.437,540.836,538.616,0.0
53030.0,STARLINK-4160,PAYLOAD,2023-11-20 13:10:42,15.08840805,0.0001768,53.2181,255.8525,85.6366,274.4828,3.9626e-05,3.43e-06,0.0,0 STARLINK-4160,1 53030U 22076AW  23324.54910351  .00000343  00000-0  39626-4 0  9990,2 53030  53.2181 255.8525 0001768  85.6366 274.4828 15.08840805 76154,6917.878,95.438,540.966,538.52,0.0
53030.0,STARLINK-4160,PAYLOAD,2023-11-20 22:43:01,15.08842492,0.0001707,53.218,254.0669,93.0512,267.0676,9.079e-05,1.157e-05,0.0,0 STARLINK-4160,1 53030U 22076AW  23324.94654203  .00001157  00000-0  90790-4 0  9998,2 53030  53.2180 254.0669 0001707  93.0512 267.0676 15.08842492 76212,6917.873,95.437,540.919,538.557,0.0
53030.0,STARLINK-4160,PAYLOAD,2023-11-21 05:04:33,15.08846466,0.0001594,53.2173,252.8775,94.8296,265.2878,0.00010177,1.332e-05,0.0,0 STARLINK-4160,1 53030U 22076AW  23325.21149965  .00001332  00000-0  10177-3 0  9998,2 53030  53.2173 252.8775 0001594  94.8296 265.2878 15.08846466 76253,6917.861,95.437,540.828,538.623,0.0
53030.0,STARLINK-4160,PAYLOAD,2023-11-22 01:44:34,15.08849449,0.0001593,53.2169,249.0118,95.1442,264.9732,0.00011574,1.555e-05,0.0,0 STARLINK-4160,1 53030U 22076AW  23326.07261878  .00001555  00000-0  11574-3 0  9990,2 53030  53.2169 249.0118 0001593  95.1442 264.9732 15.08849449 76858,6917.852,95.437,540.819,538.614,0.0
53030.0,STARLINK-4160,PAYLOAD,2023-11-23 03:10:44,15.08844183,0.0001459,53.2161,244.2553,90.2618,269.8541,8.229e-05,1.022e-05,0.0,0 STARLINK-4160,1 53030U 22076AW  23327.13245914  .00001022  00000-0  82290-4 0  9994,2 53030  53.2161 244.2553 0001459  90.2618 269.8541 15.08844183 77013,6917.868,95.437,540.742,538.723,0.0
53030.0,STARLINK-4160,PAYLOAD,2023-11-23 19:04:36,15.08828638,0.0001754,53.2188,241.2898,106.4377,253.6808,-0.00013034,-2.361e-05,0.0,0 STARLINK-4160,1 53030U 22076AW  23327.79487087 -.00002361  00000-0 -13034-3 0  9993,2 53030  53.2188 241.2898 0001754 106.4377 253.6808 15.08828638 77116,6917.915,95.438,540.994,538.567,0.0
53030.0,STARLINK-4160,PAYLOAD,2023-11-23 22:15:22,15.08831275,0.0001741,53.218,240.6942,113.5668,246.5508,-0.00014107,-2.532e-05,0.0,0 STARLINK-4160,1 53030U 22076AW  23327.92734899 -.00002532  00000-0 -14107-3 0  9996,2 53030  53.2180 240.6942 0001741 113.5668 246.5508 15.08831275 76667,6917.907,95.438,540.976,538.568,0.0
53030.0,STARLINK-4160,PAYLOAD,2023-11-24 01:26:09,15.08834497,0.0001576,53.2166,240.0953,98.1102,262.0069,-4.1278e-05,-9.45e-06,0.0,0 STARLINK-4160,1 53030U 22076AW  23328.05982900 -.00000945  00000-0 -41278-4 0  9995,2 53030  53.2166 240.0953 0001576  98.1102 262.0069 15.08834497 77153,6917.897,95.438,540.852,538.672,0.0
53030.0,STARLINK-4160,PAYLOAD,2023-11-24 22:06:10,15.08838942,0.0001705,53.2174,236.2276,107.6956,252.4222,0.00023999,3.533e-05,0.0,0 STARLINK-4160,1 53030U 22076AW  23328.92095104  .00003533  00000-0  23999-3 0  9995,2 53030  53.2174 236.2276 0001705 107.6956 252.4222 15.08838942 76819,6917.884,95.438,540.928,538.569,0.0
53030.0,STARLINK-4160,PAYLOAD,2023-11-25 01:16:56,15.08846468,0.0001648,53.2173,235.6361,101.8127,258.305,0.00041781,6.369e-05,0.0,0 STARLINK-4160,1 53030U 22076AW  23329.05343012  .00006369  00000-0  41781-3 0  9993,2 53030  53.2173 235.6361 0001648 101.8127 258.3050 15.08846468 77309,6917.861,95.437,540.866,538.586,0.0
53030.0,STARLINK-4160,PAYLOAD,2023-11-25 04:27:42,15.08852279,0.0001585,53.2167,235.0351,103.1643,256.9526,0.00057377,8.858e-05,0.0,0 STARLINK-4160,1 53030U 22076AW  23329.18590853  .00008858  00000-0  57377-3 0  9997,2 53030  53.2167 235.0351 0001585 103.1643 256.9526 15.08852279 76851,6917.843,95.437,540.804,538.611,0.0
53030.0,STARLINK-4160,PAYLOAD,2023-11-25 21:56:56,15.08861708,0.0001608,53.2169,231.7622,99.999,260.1183,0.00060153,9.304e-05,0.0,0 STARLINK-4160,1 53030U 22076AW  23329.91454342  .00009304  00000-0  60153-3 0  9993,2 53030  53.2169 231.7622 0001608  99.9990 260.1183 15.08861708 76965,6917.814,95.436,540.791,538.567,0.0
53030.0,STARLINK-4160,PAYLOAD,2023-11-26 02:43:05,15.08887899,0.0001664,53.2168,230.8676,81.2436,278.8745,0.0015599,0.00024658,0.0,0 STARLINK-4160,1 53030U 22076AW  23330.11325775  .00024658  00000-0  15599-2 0  9996,2 53030  53.2168 230.8676 0001664  81.2436 278.8745 15.08887899 77469,6917.734,95.435,540.75,538.448,0.0
53030.0,STARLINK-4160,PAYLOAD,2023-11-26 21:47:44,15.08828957,0.0001521,53.2164,227.3041,90.7967,269.32,0.00011298,1.51e-05,0.0,0 STARLINK-4160,1 53030U 22076AW  23330.90814931  .00001510  00000-0  11298-3 0  9995,2 53030  53.2164 227.3041 0001521  90.7967 269.3200 15.08828957 77111,6917.914,95.438,540.831,538.727,0.0
53030.0,STARLINK-4160,PAYLOAD,2023-11-27 02:33:53,15.08817747,0.0001416,53.2154,226.4133,107.1204,252.9943,-0.00015506,-2.753e-05,0.0,0 STARLINK-4160,1 53030U 22076AW  23331.10687284 -.00002753  00000-0 -15506-3 0  9995,2 53030  53.2154 226.4133 0001416 107.1204 252.9943 15.08817747 77614,6917.948,95.439,540.793,538.834,0.0
53030.0,STARLINK-4160,PAYLOAD,2023-11-27 05:44:40,15.08818381,0.0001518,53.2154,225.82,106.9362,253.1796,-0.0003386,-5.67e-05,0.0,0 STARLINK-4160,1 53030U 22076AW  23331.23935543 -.00005670  00000-0 -33860-3 0  9997,2 53030  53.2154 225.8200 0001518 106.9362 253.1796 15.08818381 77161,6917.946,95.439,540.862,538.761,0.0
53030.0,STARLINK-4160,PAYLOAD,2023-11-27 16:52:23,15.08807889,0.0001506,53.2164,223.7444,73.687,286.4287,-0.00029143,-4.919e-05,0.0,0 STARLINK-4160,1 53030U 22076AW  23331.70305049 -.00004919  00000-0 -29143-3 0  9995,2 53030  53.2164 223.7444 0001506  73.6870 286.4287 15.08807889 77705,6917.979,95.44,540.885,538.802,0.0
53030.0,STARLINK-4160,PAYLOAD,2023-11-27 21:38:33,15.08806577,0.0001419,53.2161,222.8516,88.2954,271.8201,-0.00025801,-4.388e-05,0.0,0 STARLINK-4160,1 53030U 22076AW  23331.90177538 -.00004388  00000-0 -25801-3 0  9994,2 53030  53.2161 222.8516 0001419  88.2954 271.8201 15.08806577 77268,6917.983,95.44,540.829,538.866,0.0
